CCSDS_OMM_VERS = 2.0
CREATION_DATE  = 
ORIGINATOR     = 

OBJECT_NAME    = STARLINK-36907
OBJECT_ID      = 2026-037J
CENTER_NAME    = EARTH
REF_FRAME      = TEME
TIME_SYSTEM    = UTC
MEAN_ELEMENT_THEORY = SGP/SGP4

EPOCH          = 2026-03-15T06:04:57.518400
MEAN_MOTION    = 15.81973930
ECCENTRICITY   = .00023002
INCLINATION    = 42.9979
RA_OF_ASC_NODE = 164.3724
ARG_OF_PERICENTER = 310.7156
MEAN_ANOMALY   = 49.3516

EPHEMERIS_TYPE = 0
CLASSIFICATION_TYPE = U
NORAD_CAT_ID   = 67940
ELEMENT_SET_NO = 999
REV_AT_EPOCH   = 413
BSTAR          = .18168484E-2
MEAN_MOTION_DOT = .399436E-2
MEAN_MOTION_DDOT = 0

CCSDS_OMM_VERS = 2.0
CREATION_DATE  = 
ORIGINATOR     = 

OBJECT_NAME    = STARLINK-36927
OBJECT_ID      = 2026-037K
CENTER_NAME    = EARTH
REF_FRAME      = TEME
TIME_SYSTEM    = UTC
MEAN_ELEMENT_THEORY = SGP/SGP4

EPOCH          = 2026-03-15T06:02:47.924448
MEAN_MOTION    = 15.81960512
ECCENTRICITY   = .00015274
INCLINATION    = 42.9978
RA_OF_ASC_NODE = 164.3600
ARG_OF_PERICENTER = 284.4715
MEAN_ANOMALY   = 75.5987

EPHEMERIS_TYPE = 0
CLASSIFICATION_TYPE = U
NORAD_CAT_ID   = 67941
ELEMENT_SET_NO = 999
REV_AT_EPOCH   = 413
BSTAR          = .18159902E-2
MEAN_MOTION_DOT = .398979E-2
MEAN_MOTION_DDOT = 0

CCSDS_OMM_VERS = 2.0
CREATION_DATE  = 
ORIGINATOR     = 

OBJECT_NAME    = STARLINK-36914
OBJECT_ID      = 2026-037L
CENTER_NAME    = EARTH
REF_FRAME      = TEME
TIME_SYSTEM    = UTC
MEAN_ELEMENT_THEORY = SGP/SGP4

EPOCH          = 2026-03-15T06:07:07.152960
MEAN_MOTION    = 15.81989403
ECCENTRICITY   = .00024212
INCLINATION    = 42.9976
RA_OF_ASC_NODE = 164.3859
ARG_OF_PERICENTER = 316.0488
MEAN_ANOMALY   = 44.0191

EPHEMERIS_TYPE = 0
CLASSIFICATION_TYPE = U
NORAD_CAT_ID   = 67942
ELEMENT_SET_NO = 999
REV_AT_EPOCH   = 413
BSTAR          = .20745221E-2
MEAN_MOTION_DOT = .459729E-2
MEAN_MOTION_DDOT = 0

CCSDS_OMM_VERS = 2.0
CREATION_DATE  = 
ORIGINATOR     = 

OBJECT_NAME    = STARLINK-36851
OBJECT_ID      = 2026-037M
CENTER_NAME    = EARTH
REF_FRAME      = TEME
TIME_SYSTEM    = UTC
MEAN_ELEMENT_THEORY = SGP/SGP4

EPOCH          = 2026-03-15T06:06:02.169792
MEAN_MOTION    = 15.81975845
ECCENTRICITY   = .0001672
INCLINATION    = 42.9976
RA_OF_ASC_NODE = 164.3783
ARG_OF_PERICENTER = 275.4500
MEAN_ANOMALY   = 84.6181

EPHEMERIS_TYPE = 0
CLASSIFICATION_TYPE = U
NORAD_CAT_ID   = 67943
ELEMENT_SET_NO = 999
REV_AT_EPOCH   = 413
BSTAR          = .16648704E-2
MEAN_MOTION_DOT = .364516E-2
MEAN_MOTION_DDOT = 0

CCSDS_OMM_VERS = 2.0
CREATION_DATE  = 
ORIGINATOR     = 

OBJECT_NAME    = STARLINK-36892
OBJECT_ID      = 2026-037N
CENTER_NAME    = EARTH
REF_FRAME      = TEME
TIME_SYSTEM    = UTC
MEAN_ELEMENT_THEORY = SGP/SGP4

EPOCH          = 2026-03-15T06:03:52.810848
MEAN_MOTION    = 15.81998673
ECCENTRICITY   = .0001822
INCLINATION    = 42.9980
RA_OF_ASC_NODE = 164.3670
ARG_OF_PERICENTER = 303.4310
MEAN_ANOMALY   = 56.6387

EPHEMERIS_TYPE = 0
CLASSIFICATION_TYPE = U
NORAD_CAT_ID   = 67944
ELEMENT_SET_NO = 999
REV_AT_EPOCH   = 413
BSTAR          = .18166337E-2
MEAN_MOTION_DOT = .39987E-2
MEAN_MOTION_DDOT = 0

CCSDS_OMM_VERS = 2.0
CREATION_DATE  = 
ORIGINATOR     = 

OBJECT_NAME    = STARLINK-36908
OBJECT_ID      = 2026-037P
CENTER_NAME    = EARTH
REF_FRAME      = TEME
TIME_SYSTEM    = UTC
MEAN_ELEMENT_THEORY = SGP/SGP4

EPOCH          = 2026-03-15T06:01:43.279968
MEAN_MOTION    = 15.82013722
ECCENTRICITY   = .000119
INCLINATION    = 42.9980
RA_OF_ASC_NODE = 164.3545
ARG_OF_PERICENTER = 293.5966
MEAN_ANOMALY   = 66.4780

EPHEMERIS_TYPE = 0
CLASSIFICATION_TYPE = U
NORAD_CAT_ID   = 67945
ELEMENT_SET_NO = 999
REV_AT_EPOCH   = 413
BSTAR          = .16885133E-2
MEAN_MOTION_DOT = .370626E-2
MEAN_MOTION_DDOT = 0

CCSDS_OMM_VERS = 2.0
CREATION_DATE  = 
ORIGINATOR     = 

OBJECT_NAME    = STARLINK-36909
OBJECT_ID      = 2026-037Q
CENTER_NAME    = EARTH
REF_FRAME      = TEME
TIME_SYSTEM    = UTC
MEAN_ELEMENT_THEORY = SGP/SGP4

EPOCH          = 2026-03-15T06:00:38.476512
MEAN_MOTION    = 15.81965034
ECCENTRICITY   = .00018998
INCLINATION    = 42.9983
RA_OF_ASC_NODE = 164.3484
ARG_OF_PERICENTER = 297.2019
MEAN_ANOMALY   = 62.8659

EPHEMERIS_TYPE = 0
CLASSIFICATION_TYPE = U
NORAD_CAT_ID   = 67946
ELEMENT_SET_NO = 999
REV_AT_EPOCH   = 413
BSTAR          = .16478776E-2
MEAN_MOTION_DOT = .360435E-2
MEAN_MOTION_DDOT = 0

CCSDS_OMM_VERS = 2.0
CREATION_DATE  = 
ORIGINATOR     = 

OBJECT_NAME    = STARLINK-36920
OBJECT_ID      = 2026-037R
CENTER_NAME    = EARTH
REF_FRAME      = TEME
TIME_SYSTEM    = UTC
MEAN_ELEMENT_THEORY = SGP/SGP4

EPOCH          = 2026-03-15T05:59:34.003104
MEAN_MOTION    = 15.82003445
ECCENTRICITY   = .00022406
INCLINATION    = 42.9980
RA_OF_ASC_NODE = 164.3417
ARG_OF_PERICENTER = 321.2121
MEAN_ANOMALY   = 38.8590

EPHEMERIS_TYPE = 0
CLASSIFICATION_TYPE = U
NORAD_CAT_ID   = 67947
ELEMENT_SET_NO = 999
REV_AT_EPOCH   = 413
BSTAR          = .18162807E-2
MEAN_MOTION_DOT = .399882E-2
MEAN_MOTION_DDOT = 0

CCSDS_OMM_VERS = 2.0
CREATION_DATE  = 
ORIGINATOR     = 

OBJECT_NAME    = STARLINK-36873
OBJECT_ID      = 2026-037S
CENTER_NAME    = EARTH
REF_FRAME      = TEME
TIME_SYSTEM    = UTC
MEAN_ELEMENT_THEORY = SGP/SGP4

EPOCH          = 2026-03-15T05:58:29.102016
MEAN_MOTION    = 15.81995465
ECCENTRICITY   = .00011472
INCLINATION    = 42.9977
RA_OF_ASC_NODE = 164.3356
ARG_OF_PERICENTER = 292.5168
MEAN_ANOMALY   = 67.5582

EPHEMERIS_TYPE = 0
CLASSIFICATION_TYPE = U
NORAD_CAT_ID   = 67948
ELEMENT_SET_NO = 999
REV_AT_EPOCH   = 413
BSTAR          = .1811647E-2
MEAN_MOTION_DOT = .398667E-2
MEAN_MOTION_DDOT = 0

CCSDS_OMM_VERS = 2.0
CREATION_DATE  = 
ORIGINATOR     = 

OBJECT_NAME    = STARLINK-36863
OBJECT_ID      = 2026-037T
CENTER_NAME    = EARTH
REF_FRAME      = TEME
TIME_SYSTEM    = UTC
MEAN_ELEMENT_THEORY = SGP/SGP4

EPOCH          = 2026-03-15T05:57:24.062688
MEAN_MOTION    = 15.81965483
ECCENTRICITY   = .00015097
INCLINATION    = 42.9981
RA_OF_ASC_NODE = 164.3293
ARG_OF_PERICENTER = 271.4331
MEAN_ANOMALY   = 88.6367

EPHEMERIS_TYPE = 0
CLASSIFICATION_TYPE = U
NORAD_CAT_ID   = 67949
ELEMENT_SET_NO = 999
REV_AT_EPOCH   = 413
BSTAR          = .15956306E-2
MEAN_MOTION_DOT = .348512E-2
MEAN_MOTION_DDOT = 0

CCSDS_OMM_VERS = 2.0
CREATION_DATE  = 
ORIGINATOR     = 

OBJECT_NAME    = STARLINK-36887
OBJECT_ID      = 2026-037U
CENTER_NAME    = EARTH
REF_FRAME      = TEME
TIME_SYSTEM    = UTC
MEAN_ELEMENT_THEORY = SGP/SGP4

EPOCH          = 2026-03-13T23:38:00.172608
MEAN_MOTION    = 15.82469233
ECCENTRICITY   = .0001689
INCLINATION    = 42.9981
RA_OF_ASC_NODE = 172.0607
ARG_OF_PERICENTER = 286.6573
MEAN_ANOMALY   = 73.4114

EPHEMERIS_TYPE = 0
CLASSIFICATION_TYPE = U
NORAD_CAT_ID   = 67950
ELEMENT_SET_NO = 999
REV_AT_EPOCH   = 393
BSTAR          = .30610012E-2
MEAN_MOTION_DOT = .715143E-2
MEAN_MOTION_DDOT = 0

CCSDS_OMM_VERS = 2.0
CREATION_DATE  = 
ORIGINATOR     = 

OBJECT_NAME    = STARLINK-36897
OBJECT_ID      = 2026-037V
CENTER_NAME    = EARTH
REF_FRAME      = TEME
TIME_SYSTEM    = UTC
MEAN_ELEMENT_THEORY = SGP/SGP4

EPOCH          = 2026-03-15T05:55:14.836800
MEAN_MOTION    = 15.81972891
ECCENTRICITY   = .00014736
INCLINATION    = 42.9986
RA_OF_ASC_NODE = 164.3174
ARG_OF_PERICENTER = 255.3844
MEAN_ANOMALY   = 104.6865

EPHEMERIS_TYPE = 0
CLASSIFICATION_TYPE = U
NORAD_CAT_ID   = 67951
ELEMENT_SET_NO = 999
REV_AT_EPOCH   = 413
BSTAR          = .17704542E-2
MEAN_MOTION_DOT = .388718E-2
MEAN_MOTION_DDOT = 0

